NORAD_CAT_ID,OBJECT_NAME,OBJECT_TYPE,EPOCH,MEAN_MOTION,ECCENTRICITY,INCLINATION,RA_OF_ASC_NODE,ARG_OF_PERICENTER,MEAN_ANOMALY,BSTAR,MEAN_MOTION_DOT,MEAN_MOTION_DDOT,TLE_LINE0,TLE_LINE1,TLE_LINE2,SEMIMAJOR_AXIS,PERIOD,APOGEE,PERIGEE,DECAYED
53593.0,STARLINK-4671,PAYLOAD,2024-03-27 00:19:13,15.08829938,0.000164,53.2161,203.5368,83.39,276.7278,-0.00033797,-5.661e-05,0.0,0 STARLINK-4671,1 53593U 22104F   24087.01335446 -.00005661  00000-0 -33797-3 0  9993,2 53593  53.2161 203.5368 0001640  83.3900 276.7278 15.08829938 87339,6917.911,95.438,540.911,538.642,0.0
53593.0,STARLINK-4671,PAYLOAD,2024-03-27 13:02:20,15.08818114,0.0001423,53.2164,201.1573,86.4893,273.6262,6.4801e-06,-1.85e-06,0.0,0 STARLINK-4671,1 53593U 22104F   24087.54328722 -.00000185  00000-0  64801-5 0  9997,2 53593  53.2164 201.1573 0001423  86.4893 273.6262 15.08818114 87410,6917.947,95.439,540.797,538.828,0.0
53593.0,STARLINK-4671,PAYLOAD,2024-03-27 14:37:43,15.08819047,0.0001471,53.2166,200.8601,86.9891,273.127,1.8636e-05,9e-08,0.0,0 STARLINK-4671,1 53593U 22104F   24087.60952795  .00000009  00000-0  18636-4 0  9995,2 53593  53.2166 200.8601 0001471  86.9891 273.1270 15.08819047 88440,6917.944,95.439,540.827,538.792,0.0
53593.0,STARLINK-4671,PAYLOAD,2024-03-28 12:53:09,15.08807596,0.0001399,53.2172,196.6991,89.4223,270.6929,0.00050615,7.77e-05,0.0,0 STARLINK-4671,1 53593U 22104F   24088.53691006  .00007770  00000-0  50615-3 0  9997,2 53593  53.2172 196.6991 0001399  89.4223 270.6929 15.08807596 87568,6917.979,95.44,540.812,538.877,0.0
53593.0,STARLINK-4671,PAYLOAD,2024-03-29 12:43:56,15.08829818,0.0001556,53.2171,192.2423,100.9682,259.1486,0.00020927,3.043e-05,0.0,0 STARLINK-4671,1 53593U 22104F   24089.53051006  .00003043  00000-0  20927-3 0  9990,2 53593  53.2171 192.2423 0001556 100.9682 259.1486 15.08829818 87710,6917.912,95.438,540.853,538.7,0.0
53593.0,STARLINK-4671,PAYLOAD,2024-03-29 15:54:42,15.08834038,0.0001533,53.217,191.6436,84.5423,275.5745,0.0002707,4.022e-05,0.0,0 STARLINK-4671,1 53593U 22104F   24089.66298975  .00004022  00000-0  27070-3 0  9996,2 53593  53.2170 191.6436 0001533  84.5423 275.5745 15.08834038 88756,6917.899,95.438,540.824,538.703,0.0
53593.0,STARLINK-4671,PAYLOAD,2024-03-30 14:10:06,15.08841519,0.0001467,53.2158,187.4789,86.4777,273.6383,0.00032576,4.901e-05,0.0,0 STARLINK-4671,1 53593U 22104F   24090.59035142  .00004901  00000-0  32576-3 0  9998,2 53593  53.2158 187.4789 0001467  86.4777 273.6383 15.08841519 88899,6917.876,95.437,540.756,538.726,0.0
53593.0,STARLINK-4671,PAYLOAD,2024-03-31 12:25:29,15.08848847,0.0001499,53.2157,183.3164,88.197,271.9194,0.00025955,3.846e-05,0.0,0 STARLINK-4671,1 53593U 22104F   24091.51770817  .00003846  00000-0  25955-3 0  9996,2 53593  53.2157 183.3164 0001499  88.1970 271.9194 15.08848847 89038,6917.853,95.437,540.755,538.681,0.0
53593.0,STARLINK-4671,PAYLOAD,2024-03-31 23:33:11,15.08846722,0.0001396,53.2144,181.2352,85.9902,274.1249,0.00018653,2.682e-05,0.0,0 STARLINK-4671,1 53593U 22104F   24091.98138746  .00002682  00000-0  18653-3 0  9990,2 53593  53.2144 181.2352 0001396  85.9902 274.1249 15.08846722 88086,6917.86,95.437,540.691,538.759,0.0
53593.0,STARLINK-4671,PAYLOAD,2024-04-01 12:16:17,15.08834173,0.0001686,53.2179,178.8561,90.2461,269.8725,-5.58e-05,-1.176e-05,0.0,0 STARLINK-4671,1 53593U 22104F   24092.51131511 -.00001176  00000-0 -55800-4 0  9998,2 53593  53.2179 178.8561 0001686  90.2461 269.8725 15.08834173 88165,6917.898,95.438,540.93,538.597,0.0
53593.0,STARLINK-4671,PAYLOAD,2024-04-02 12:07:03,15.08857798,0.0001277,53.2161,174.3957,90.3112,269.8026,0.00031864,4.789e-05,0.0,0 STARLINK-4671,1 53593U 22104F   24093.50490495  .00004789  00000-0  31864-3 0  9991,2 53593  53.2161 174.3957 0001277  90.3112 269.8026 15.08857798 88315,6917.826,95.436,540.574,538.808,0.0
53593.0,STARLINK-4671,PAYLOAD,2024-04-03 11:57:50,15.08837888,0.0001479,53.2175,169.9349,87.3566,272.7595,0.00013691,1.892e-05,0.0,0 STARLINK-4671,1 53593U 22104F   24094.49850397  .00001892  00000-0  13691-3 0  9991,2 53593  53.2175 169.9349 0001479  87.3566 272.7595 15.08837888 88466,6917.887,95.438,540.775,538.729,0.0
53593.0,STARLINK-4671,PAYLOAD,2024-04-03 21:30:10,15.08830461,0.0001374,53.217,168.1516,83.35,276.7648,-1.4848e-06,-3.12e-06,0.0,0 STARLINK-4671,1 53593U 22104F   24094.89595208 -.00000312  00000-0 -14848-5 0  9997,2 53593  53.2170 168.1516 0001374  83.3500 276.7648 15.08830461 89549,6917.91,95.438,540.725,538.824,0.0
53593.0,STARLINK-4671,PAYLOAD,2024-04-04 03:51:42,15.08830954,0.0001181,53.2167,166.9629,83.9418,276.1709,-4.9693e-05,-1.078e-05,0.0,0 STARLINK-4671,1 53593U 22104F   24095.16091179 -.00001078  00000-0 -49693-4 0  9991,2 53593  53.2167 166.9629 0001181  83.9418 276.1709 15.08830954 88566,6917.908,95.438,540.59,538.956,0.0
53593.0,STARLINK-4671,PAYLOAD,2024-04-04 11:48:38,15.08829665,0.0001125,53.2168,165.4758,83.1558,276.9562,-7.4523e-05,-1.473e-05,0.0,0 STARLINK-4671,1 53593U 22104F   24095.49211618 -.00001473  00000-0 -74523-4 0  9998,2 53593  53.2168 165.4758 0001125  83.1558 276.9562 15.08829665 89630,6917.912,95.438,540.555,538.999,0.0
53593.0,STARLINK-4671,PAYLOAD,2024-04-04 21:20:57,15.08842148,0.0001297,53.2174,163.6916,86.47,273.644,-0.00016866,-2.971e-05,0.0,0 STARLINK-4671,1 53593U 22104F   24095.88955081 -.00002971  00000-0 -16866-3 0  9999,2 53593  53.2174 163.6916 0001297  86.4700 273.6440 15.08842148 89694,6917.874,95.437,540.636,538.842,0.0
53593.0,STARLINK-4671,PAYLOAD,2024-04-05 05:17:53,15.08827546,0.0001423,53.2175,162.2052,94.0446,266.0709,-1.068e-05,-4.58e-06,0.0,0 STARLINK-4671,1 53593U 22104F   24096.22075586 -.00000458  00000-0 -10680-4 0  9998,2 53593  53.2175 162.2052 0001423  94.0446 266.0709 15.08827546 88726,6917.918,95.438,540.768,538.799,0.0
53593.0,STARLINK-4671,PAYLOAD,2024-04-05 13:14:49,15.08825788,0.0001434,53.2174,160.7185,89.0468,271.0688,6.1522e-05,6.91e-06,0.0,0 STARLINK-4671,1 53593U 22104F   24096.55195710  .00000691  00000-0  61522-4 0  9994,2 53593  53.2174 160.7185 0001434  89.0468 271.0688 15.08825788 89791,6917.924,95.438,540.781,538.797,0.0
53593.0,STARLINK-4671,PAYLOAD,2024-04-06 09:54:49,15.08833884,0.000145,53.217,156.8519,90.2322,269.8836,0.00012928,1.77e-05,0.0,0 STARLINK-4671,1 53593U 22104F   24097.41307666  .00001770  00000-0  12928-3 0  9999,2 53593  53.2170 156.8519 0001450  90.2322 269.8836 15.08833884 88903,6917.899,95.438,540.767,538.761,0.0
53593.0,STARLINK-4671,PAYLOAD,2024-04-06 21:02:31,15.0883654,0.0001465,53.2168,154.77,85.0398,275.0762,0.00011549,1.55e-05,0.0,0 STARLINK-4671,1 53593U 22104F   24097.87675744  .00001550  00000-0  11549-3 0  9998,2 53593  53.2168 154.7700 0001465  85.0398 275.0762 15.08836540 89999,6917.891,95.438,540.769,538.742,0.0
53593.0,STARLINK-4671,PAYLOAD,2024-04-07 09:45:37,15.08835975,0.0001463,53.217,152.3903,86.9133,273.2026,8.1948e-05,1.016e-05,0.0,0 STARLINK-4671,1 53593U 22104F   24098.40668110  .00001016  00000-0  81948-4 0  9995,2 53593  53.2170 152.3903 0001463  86.9133 273.2026 15.08835975 90071,6917.893,95.438,540.77,538.746,0.0
53593.0,STARLINK-4671,PAYLOAD,2024-04-07 20:53:19,15.08833319,0.000151,53.217,150.3093,85.0566,275.0599,3.2129e-05,2.23e-06,0.0,0 STARLINK-4671,1 53593U 22104F   24098.87036608  .00000223  00000-0  32129-4 0  9993,2 53593  53.2170 150.3093 0001510  85.0566 275.0599 15.08833319 89121,6917.901,95.438,540.81,538.721,0.0
53593.0,STARLINK-4671,PAYLOAD,2024-04-08 09:36:23,15.08845796,0.0001434,53.2166,147.9301,84.8145,275.3011,6.73e-05,7.83e-06,0.0,0 STARLINK-4671,1 53593U 22104F   24099.40027731  .00000783  00000-0  67300-4 0  9990,2 53593  53.2166 147.9301 0001434  84.8145 275.3011 15.08845796 89208,6917.863,95.437,540.72,538.736,0.0
53593.0,STARLINK-4671,PAYLOAD,2024-04-09 09:27:11,15.08840005,0.0001432,53.2163,143.4687,86.7314,273.3842,3.1385e-05,2.12e-06,0.0,0 STARLINK-4671,1 53593U 22104F   24100.39387985  .00000212  00000-0  31385-4 0  9992,2 53593  53.2163 143.4687 0001432  86.7314 273.3842 15.08840005 89354,6917.88,95.438,540.736,538.755,0.0
53593.0,STARLINK-4671,PAYLOAD,2024-04-10 12:28:44,15.08840386,0.0001453,53.2167,138.4137,87.4405,272.6753,-8.8305e-06,-4.28e-06,0.0,0 STARLINK-4671,1 53593U 22104F   24101.51996129 -.00000428  00000-0 -88305-5 0  9999,2 53593  53.2167 138.4137 0001453  87.4405 272.6753 15.08840386 89528,6917.879,95.438,540.749,538.739,0.0
53593.0,STARLINK-4671,PAYLOAD,2024-04-11 09:08:45,15.08833407,0.0001391,53.2167,134.5481,87.0105,273.1046,2.1092e-05,4.8e-07,0.0,0 STARLINK-4671,1 53593U 22104F   24102.38108537  .00000048  00000-0  21092-4 0  9998,2 53593  53.2167 134.5481 0001391  87.0105 273.1046 15.08833407 90676,6917.901,95.438,540.728,538.803,0.0
53593.0,STARLINK-4671,PAYLOAD,2024-04-11 18:41:04,15.08835477,0.0001383,53.2169,132.7646,86.7499,273.3652,2.2064e-05,6.3e-07,0.0,0 STARLINK-4671,1 53593U 22104F   24102.77852564  .00000063  00000-0  22064-4 0  9994,2 53593  53.2169 132.7646 0001383  86.7499 273.3652 15.08835477 89711,6917.894,95.438,540.716,538.802,0.0
53593.0,STARLINK-4671,PAYLOAD,2024-04-12 08:59:32,15.08838462,0.0001361,53.217,130.0883,86.8011,273.3136,4.4166e-05,4.15e-06,0.0,0 STARLINK-4671,1 53593U 22104F   24103.37468439  .00000415  00000-0  44166-4 0  9993,2 53593  53.2170 130.0883 0001361  86.8011 273.3136 15.08838462 90822,6917.885,95.438,540.692,538.809,0.0
53593.0,STARLINK-4671,PAYLOAD,2024-04-13 00:53:24,15.08838534,0.0001316,53.2169,127.115,90.4686,269.6457,5.9364e-05,6.57e-06,0.0,0 STARLINK-4671,1 53593U 22104F   24104.03708443  .00000657  00000-0  59364-4 0  9993,2 53593  53.2169 127.1150 0001316  90.4686 269.6457 15.08838534 89904,6917.885,95.438,540.66,538.839,0.0
53593.0,STARLINK-4671,PAYLOAD,2024-04-13 08:50:20,15.08834702,0.0001326,53.2166,125.6275,86.9508,273.1636,5.7348e-05,6.25e-06,0.0,0 STARLINK-4671,1 53593U 22104F   24104.36828854  .00000625  00000-0  57348-4 0  9993,2 53593  53.2166 125.6275 0001326  86.9508 273.1636 15.08834702 90977,6917.897,95.438,540.679,538.844,0.0
